STARLINK-30448          
1 57928U 23147R   26067.45558543  .00001050  00000+0  92808-4 0  9994
2 57928  43.0037 332.6498 0001057 276.8117  83.2605 15.02537394136407
W-SERIES 4              
1 64543U 25135R   26068.82962634  .00052628  21484-5  63083-3 0  9990
2 64543  97.4458 182.1022 0402581  65.9998 298.2822 15.01503849 39543
